INTELSAT 902 (IS-902)   
1 26900U 01039A   26189.48957002 -.00000273  00000+0  00000+0 0  9992
2 26900   6.1695  71.5227 0004417  32.5371 308.5168  1.00272183 90900
INTELSAT 904 (IS-904)   
1 27380U 02007A   26189.42201328 -.00000216  00000+0  00000+0 0  9995
2 27380   6.9697  68.9266 0005581  21.4070 316.4939  1.00272618 51973
DIRECTV 5 (TEMPO 1)     
1 27426U 02023A   26189.60804479 -.00000046  00000+0  00000+0 0  9991
2 27426   4.9292  75.0430 0003091  36.0235 284.2825  1.00271055 88334
INTELSAT 905 (IS-905)   
1 27438U 02027A   26189.61928508  .00000103  00000+0  00000+0 0  9992
2 27438   6.8040  69.5389 0003656  42.8929 259.8813  1.00272321 51570
GALAXY 3C (G-3C)        
1 27445U 02030A   26189.98973207 -.00000142  00000+0  00000+0 0  9994
2 27445   3.7865  77.6937 0001603  38.0419  72.6775  1.00270967 46711
INTELSAT 906 (IS-906)   
1 27513U 02041A   26189.90849098  .00000022  00000+0  00000+0 0  9990
2 27513   5.8561  72.6541 0003994  17.1441 228.2402  1.00271863 87242
GALAXY 13 (HORIZONS-1)  
1 27954U 03044A   26189.75496624  .00000146  00000+0  00000+0 0  9996
2 27954   1.4737  83.5895 0001762  25.0813 299.8354  1.00275052 46781
INTELSAT 10-02          
1 28358U 04022A   26189.85574444  .00000003  00000+0  00000+0 0  9992
2 28358   0.0473 261.1921 0000498 320.5096  12.1671  1.00270928 80779
DIRECTV 8               
1 28659U 05019A   26189.61852212  .00000016  00000+0  00000+0 0  9993
2 28659   0.0167  53.6513 0003117  67.6792 268.8591  1.00271899 77288
GALAXY 28 (G-28)        
1 28702U 05022A   26189.85054442 -.00000189  00000+0  00000+0 0  9993
2 28702   3.3510  78.6705 0002150  33.1230  94.1019  1.00270484 52193
GALAXY 16 (G-16)        
1 29236U 06023A   26189.90767905 -.00000113  00000+0  00000+0 0  9996
2 29236   0.0317 124.0742 0002513 349.3459  41.1958  1.00271748 73191
DIRECTV 9S              
1 29494U 06043A   26189.90724572 -.00000101  00000+0  00000+0 0  9994
2 29494   2.4736  80.6419 0005086  30.3287  41.2912  1.00270966 51604
GALAXY 17 (G-17)        
1 31307U 07016B   26189.76787964 -.00000194  00000+0  00000+0 0  9991
2 31307   3.0230  79.6289 0003654  28.8037   9.6985  1.00271714 70020
INTELSAT 11 (IS-11)     
1 32253U 07044B   26189.79077794  .00000011  00000+0  00000+0 0  9996
2 32253   3.6183  78.4091 0003903  97.4231  66.3217  0.99049913 68663
HORIZONS-2              
1 32388U 07063B   26189.84134686 -.00000241  00000+0  00000+0 0  9992
2 32388   2.6547  80.3616 0003695  15.4026  60.1183  1.00271532 68032
DIRECTV 11              
1 32729U 08013A   26189.90759238 -.00000112  00000+0  00000+0 0  9997
2 32729   0.0394 208.5196 0000119 345.2278 320.6527  1.00273062 45818
GALAXY 18 (G-18)        
1 32951U 08024A   26189.90273903  .00000039  00000+0  00000+0 0  9993
2 32951   0.0154 348.7435 0002886 130.1472   9.9566  1.00272961 46078
GALAXY 19 (G-19)        
1 33376U 08045A   26189.90802572 -.00000125  00000+0  00000+0 0  9995
2 33376   0.0558 253.2950 0002416 220.5718  42.8596  1.00272864 65124
FM-5                    
1 35493U 09034A   26189.55373420 -.00000185  00000+0  00000+0 0  9998
2 35493   0.0383 269.8296 0000961  64.9764  64.8737  1.00269466 46856
INTELSAT 14 (IS-14)     
1 36097U 09064A   26189.77576634 -.00000259  00000+0  00000+0 0  9990
2 36097   0.0055  57.8007 0002273  59.8447  43.3646  1.00270382 60820
INTELSAT 15 (IS-15)     
1 36106U 09067A   26189.80156667 -.00000170  00000+0  00000+0 0  9990
2 36106   0.0166  34.0807 0002196  79.9446 186.4370  1.00270832 41445
DIRECTV 12              
1 36131U 09075A   26189.90689904 -.00000089  00000+0  00000+0 0  9992
2 36131   0.0136 198.3798 0000200   1.8902 310.3337  1.00270284 46771
INTELSAT 16 (IS-16)     
1 36397U 10006A   26189.84091352 -.00000230  00000+0  00000+0 0  9997
2 36397   0.0098 336.1128 0002289 152.9219  24.2785  1.00272089 59877
XM-5                    
1 37185U 10053A   26189.54801418 -.00000008  00000+0  00000+0 0  9997
2 37185   0.0624 268.3398 0001837 309.8514 150.3954  1.00270805 57693
INTELSAT 17 (IS-17)     
1 37238U 10065B   26189.91260810  .00000013  00000+0  00000+0 0  9990
2 37238   0.0120  82.5734 0002601  29.2981 209.5153  1.00271350 53469
INTELSAT 28 (IS-28)     
1 37392U 11016A   26189.77836635 -.00000212  00000+0  00000+0 0  9998
2 37392   1.8588  82.3583 0003751  34.8276  58.0217  1.00272860 53503
INTELSAT 18 (IS-18)     
1 37834U 11056A   26189.89164564  .00000067  00000+0  00000+0 0  9998
2 37834   0.0204 291.8473 0001769 189.9794 305.9944  1.00271686 54023
INTELSAT 22 (IS-22)     
1 38098U 12011A   26189.91779955  .00000000  00000+0  00000+0 0  9999
2 38098   0.0316  60.3084 0001856  70.3245 198.7204  1.00270984  7405
INTELSAT 19 (IS-19)     
1 38356U 12030A   26189.88887229 -.00000042  00000+0  00000+0 0  9994
2 38356   0.0162  25.4621 0003146  95.5178 291.8505  1.00271673 50669
INTELSAT 20 (IS-20)     
1 38740U 12043A   26189.91369882 -.00000011  00000+0  00000+0 0  9995
2 38740   0.0095  43.7303 0000971 107.3254 173.2329  1.00276198 50968
INTELSAT 21 (IS-21)     
1 38749U 12045A   26189.77316633 -.00000270  00000+0  00000+0 0  9993
2 38749   0.0157   6.9621 0001730 127.8680  12.2249  1.00269345 50749
